{
  "type": "FeatureCollection",
  "features": [
    {
      "type": "Feature",
      "properties": {
        "norad_id": 66577,
        "name": "STARLINK-35815",
        "group": "last-30-days",
        "lat": 35.22741130511773,
        "lon": 158.39737082895132,
        "alt_km": 408.8848314313,
        "timestamp": "2025-12-14T18:52:54.242106+00:00",
        "meta_object_name": "STARLINK-35815",
        "meta_object_id": "2025-268W",
        "meta_epoch": "2025-12-13T17:54:04.125312",
        "meta_mean_motion": 15.50612342,
        "meta_eccentricity": 0.00014621,
        "meta_inclination": 42.9992,
        "meta_ra_of_asc_node": 115.2176,
        "meta_arg_of_pericenter": 300.4475,
        "meta_mean_anomaly": 59.6241,
        "meta_ephemeris_type": 0,
        "meta_classification_type": "U",
        "meta_norad_cat_id": 66577,
        "meta_element_set_no": 999,
        "meta_rev_at_epoch": 478,
        "meta_bstar": 0.0021834722,
        "meta_mean_motion_dot": 0.00130056,
        "meta_mean_motion_ddot": 0,
        "tle_line1": "1 66577U 25268W   25347.74588108  .00130056  00000+0  21835-2 0  9991",
        "tle_line2": "2 66577  42.9992 115.2176 0001462 300.4475  59.6241 15.50612342  4782"
      },
      "geometry": {
        "type": "Point",
        "coordinates": [
          158.39737082895132,
          35.22741130511773
        ]
      }
    },
    {
      "type": "Feature",
      "properties": {
        "norad_id": 66578,
        "name": "STARLINK-35743",
        "group": "last-30-days",
        "lat": 36.10749057027257,
        "lon": 160.6361893759687,
        "alt_km": 408.17448017874085,
        "timestamp": "2025-12-14T18:52:54.242119+00:00",
        "meta_object_name": "STARLINK-35743",
        "meta_object_id": "2025-268X",
        "meta_epoch": "2025-12-13T17:53:34.638720",
        "meta_mean_motion": 15.50625412,
        "meta_eccentricity": 0.00013233,
        "meta_inclination": 42.9997,
        "meta_ra_of_asc_node": 115.215,
        "meta_arg_of_pericenter": 330.5178,
        "meta_mean_anomaly": 29.5607,
        "meta_ephemeris_type": 0,
        "meta_classification_type": "U",
        "meta_norad_cat_id": 66578,
        "meta_element_set_no": 999,
        "meta_rev_at_epoch": 478,
        "meta_bstar": 0.0024358562,
        "meta_mean_motion_dot": 0.00145485,
        "meta_mean_motion_ddot": 0,
        "tle_line1": "1 66578U 25268X   25347.74553980  .00145485  00000+0  24359-2 0  9998",
        "tle_line2": "2 66578  42.9997 115.2150 0001323 330.5178  29.5607 15.50625412  4784"
      },
      "geometry": {
        "type": "Point",
        "coordinates": [
          160.6361893759687,
          36.10749057027257
        ]
      }
    },
    {
      "type": "Feature",
      "properties": {
        "norad_id": 66579,
        "name": "STARLINK-35868",
        "group": "last-30-days",
        "lat": 36.84612831278648,
        "lon": 162.64605274853102,
        "alt_km": 409.4215099767807,
        "timestamp": "2025-12-14T18:52:54.242129+00:00",
        "meta_object_name": "STARLINK-35868",
        "meta_object_id": "2025-268Y",
        "meta_epoch": "2025-12-13T17:53:04.593984",
        "meta_mean_motion": 15.50606269,
        "meta_eccentricity": 0.00020071,
        "meta_inclination": 42.9997,
        "meta_ra_of_asc_node": 115.2115,
        "meta_arg_of_pericenter": 269.3603,
        "meta_mean_anomaly": 90.7027,
        "meta_ephemeris_type": 0,
        "meta_classification_type": "U",
        "meta_norad_cat_id": 66579,
        "meta_element_set_no": 999,
        "meta_rev_at_epoch": 478,
        "meta_bstar": 0.0021078102,
        "meta_mean_motion_dot": 0.00125438,
        "meta_mean_motion_ddot": 0,
        "tle_line1": "1 66579U 25268Y   25347.74519206  .00125438  00000+0  21078-2 0  9993",
        "tle_line2": "2 66579  42.9997 115.2115 0002007 269.3603  90.7027 15.50606269  4783"
      },
      "geometry": {
        "type": "Point",
        "coordinates": [
          162.64605274853102,
          36.84612831278648
        ]
      }
    },
    {
      "type": "Feature",
      "properties": {
        "norad_id": 66580,
        "name": "STARLINK-35872",
        "group": "last-30-days",
        "lat": 37.61354265029007,
        "lon": 164.88750321031694,
        "alt_km": 409.0543578889119,
        "timestamp": "2025-12-14T18:52:54.242139+00:00",
        "meta_object_name": "STARLINK-35872",
        "meta_object_id": "2025-268Z",
        "meta_epoch": "2025-12-13T17:52:35.051232",
        "meta_mean_motion": 15.50609024,
        "meta_eccentricity": 0.00020363,
        "meta_inclination": 43,
        "meta_ra_of_asc_node": 115.2102,
        "meta_arg_of_pericenter": 286.0512,
        "meta_mean_anomaly": 74.0124,
        "meta_ephemeris_type": 0,
        "meta_classification_type": "U",
        "meta_norad_cat_id": 66580,
        "meta_element_set_no": 999,
        "meta_rev_at_epoch": 478,
        "meta_bstar": 0.0021765096,
        "meta_mean_motion_dot": 0.0012962,
        "meta_mean_motion_ddot": 0,
        "tle_line1": "1 66580U 25268Z   25347.74485013  .00129620  00000+0  21765-2 0  9993",
        "tle_line2": "2 66580  43.0000 115.2102 0002036 286.0512  74.0124 15.50609024  4780"
      },
      "geometry": {
        "type": "Point",
        "coordinates": [
          164.88750321031694,
          37.61354265029007
        ]
      }
    },
    {
      "type": "Feature",
      "properties": {
        "norad_id": 66581,
        "name": "STARLINK-35744",
        "group": "last-30-days",
        "lat": 38.272204441989274,
        "lon": 166.95860049196477,
        "alt_km": 408.6948818271867,
        "timestamp": "2025-12-14T18:52:54.242149+00:00",
        "meta_object_name": "STARLINK-35744",
        "meta_object_id": "2025-268AA",
        "meta_epoch": "2025-12-13T17:52:05.695104",
        "meta_mean_motion": 15.50589639,
        "meta_eccentricity": 0.00013654,
        "meta_inclination": 43.0004,
        "meta_ra_of_asc_node": 115.2077,
        "meta_arg_of_pericenter": 297.9166,
        "meta_mean_anomaly": 62.1555,
        "meta_ephemeris_type": 0,
        "meta_classification_type": "U",
        "meta_norad_cat_id": 66581,
        "meta_element_set_no": 999,
        "meta_rev_at_epoch": 478,
        "meta_bstar": 0.0018813666,
        "meta_mean_motion_dot": 0.00111658,
        "meta_mean_motion_ddot": 0,
        "tle_line1": "1 66581U 25268AA  25347.74451036  .00111658  00000+0  18814-2 0  9995",
        "tle_line2": "2 66581  43.0004 115.2077 0001365 297.9166  62.1555 15.50589639  4781"
      },
      "geometry": {
        "type": "Point",
        "coordinates": [
          166.95860049196477,
          38.272204441989274
        ]
      }
    },
    {
      "type": "Feature",
      "properties": {
        "norad_id": 66582,
        "name": "STARLINK-35746",
        "group": "last-30-days",
        "lat": 38.84505915524816,
        "lon": 168.89739186126704,
        "alt_km": 409.3723416961175,
        "timestamp": "2025-12-14T18:52:54.242159+00:00",
        "meta_object_name": "STARLINK-35746",
        "meta_object_id": "2025-268AB",
        "meta_epoch": "2025-12-13T17:51:35.725536",
        "meta_mean_motion": 15.5051855,
        "meta_eccentricity": 0.0001613,
        "meta_inclination": 42.9999,
        "meta_ra_of_asc_node": 115.2041,
        "meta_arg_of_pericenter": 266.043,
        "meta_mean_anomaly": 94.0246,
        "meta_ephemeris_type": 0,
        "meta_classification_type": "U",
        "meta_norad_cat_id": 66582,
        "meta_element_set_no": 999,
        "meta_rev_at_epoch": 478,
        "meta_bstar": 0.0017137885,
        "meta_mean_motion_dot": 0.0010129,
        "meta_mean_motion_ddot": 0,
        "tle_line1": "1 66582U 25268AB  25347.74416349  .00101290  00000+0  17138-2 0  9993",
        "tle_line2": "2 66582  42.9999 115.2041 0001613 266.0430  94.0246 15.50518550  4786"
      },
      "geometry": {
        "type": "Point",
        "coordinates": [
          168.89739186126704,
          38.84505915524816
        ]
      }
    },
    {
      "type": "Feature",
      "properties": {
        "norad_id": 66583,
        "name": "STARLINK-35941",
        "group": "last-30-days",
        "lat": 39.485363452397884,
        "lon": 171.24736746232855,
        "alt_km": 409.8506540448134,
        "timestamp": "2025-12-14T18:52:54.242169+00:00",
        "meta_object_name": "STARLINK-35941",
        "meta_object_id": "2025-268AC",
        "meta_epoch": "2025-12-13T17:51:04.180032",
        "meta_mean_motion": 15.50496485,
        "meta_eccentricity": 0.00022059,
        "meta_inclination": 43.0002,
        "meta_ra_of_asc_node": 115.2012,
        "meta_arg_of_pericenter": 251.6493,
        "meta_mean_anomaly": 108.4127,
        "meta_ephemeris_type": 0,
        "meta_classification_type": "U",
        "meta_norad_cat_id": 66583,
        "meta_element_set_no": 999,
        "meta_rev_at_epoch": 478,
        "meta_bstar": 0.0016451468,
        "meta_mean_motion_dot": 0.00097093,
        "meta_mean_motion_ddot": 0,
        "tle_line1": "1 66583U 25268AC  25347.74379838  .00097093  00000+0  16451-2 0  9997",
        "tle_line2": "2 66583  43.0002 115.2012 0002205 251.6493 108.4127 15.50496485  4789"
      },
      "geometry": {
        "type": "Point",
        "coordinates": [
          171.24736746232855,
          39.485363452397884
        ]
      }
    }
  ]
}